{
  "type": "FeatureCollection",
  "features": [
    {
      "type": "Feature",
      "properties": {
        "norad_id": 26766,
        "name": "INTELSAT 10 (IS-10)",
        "group": "intelsat",
        "lat": -4.684962518150686,
        "lon": 28.411868970903534,
        "alt_km": 36132.265310970084,
        "timestamp": "2025-12-11T10:53:15.552896+00:00",
        "meta_object_name": "INTELSAT 10 (IS-10)",
        "meta_object_id": "2001-019A",
        "meta_epoch": "2025-12-10T14:14:44.567232",
        "meta_mean_motion": 0.99078928,
        "meta_eccentricity": 0.00078121,
        "meta_inclination": 8.625,
        "meta_ra_of_asc_node": 61.1789,
        "meta_arg_of_pericenter": 223.6466,
        "meta_mean_anomaly": 156.4185,
        "meta_ephemeris_type": 0,
        "meta_classification_type": "U",
        "meta_norad_cat_id": 26766,
        "meta_element_set_no": 999,
        "meta_rev_at_epoch": 4371,
        "meta_bstar": 0,
        "meta_mean_motion_dot": -2.88e-06,
        "meta_mean_motion_ddot": 0,
        "tle_line1": "1 26766U 01019A   25344.59357138 -.00000288  00000+0  00000+0 0  9994",
        "tle_line2": "2 26766   8.6250  61.1789 0007812 223.6466 156.4185  0.99078928 43716"
      },
      "geometry": {
        "type": "Point",
        "coordinates": [
          28.411868970903534,
          -4.684962518150686
        ]
      }
    },
    {
      "type": "Feature",
      "properties": {
        "norad_id": 26900,
        "name": "INTELSAT 902 (IS-902)",
        "group": "intelsat",
        "lat": 4.908041642154862,
        "lon": -166.41148309052852,
        "alt_km": 35776.72138588647,
        "timestamp": "2025-12-11T10:53:15.552923+00:00",
        "meta_object_name": "INTELSAT 902 (IS-902)",
        "meta_object_id": "2001-039A",
        "meta_epoch": "2025-12-01T16:59:59.311968",
        "meta_mean_motion": 1.00270327,
        "meta_eccentricity": 0.00043097,
        "meta_inclination": 5.6187,
        "meta_ra_of_asc_node": 74.2002,
        "meta_arg_of_pericenter": 175.119,
        "meta_mean_anomaly": 26.3816,
        "meta_ephemeris_type": 0,
        "meta_classification_type": "U",
        "meta_norad_cat_id": 26900,
        "meta_element_set_no": 999,
        "meta_rev_at_epoch": 8871,
        "meta_bstar": 0,
        "meta_mean_motion_dot": -2.63e-06,
        "meta_mean_motion_ddot": 0,
        "tle_line1": "1 26900U 01039A   25335.70832537 -.00000263  00000+0  00000+0 0  9993",
        "tle_line2": "2 26900   5.6187  74.2002 0004309 175.1190  26.3816  1.00270327 88713"
      },
      "geometry": {
        "type": "Point",
        "coordinates": [
          -166.41148309052852,
          4.908041642154862
        ]
      }
    },
    {
      "type": "Feature",
      "properties": {
        "norad_id": 27380,
        "name": "INTELSAT 904 (IS-904)",
        "group": "intelsat",
        "lat": 4.064943358463059,
        "lon": -147.61569311973636,
        "alt_km": 35784.307404688225,
        "timestamp": "2025-12-11T10:53:15.552941+00:00",
        "meta_object_name": "INTELSAT 904 (IS-904)",
        "meta_object_id": "2002-007A",
        "meta_epoch": "2025-12-11T02:13:33.121344",
        "meta_mean_motion": 1.00272878,
        "meta_eccentricity": 0.0001533,
        "meta_inclination": 6.451,
        "meta_ra_of_asc_node": 71.4509,
        "meta_arg_of_pericenter": 222.2761,
        "meta_mean_anomaly": 148.2084,
        "meta_ephemeris_type": 0,
        "meta_classification_type": "U",
        "meta_norad_cat_id": 27380,
        "meta_element_set_no": 999,
        "meta_rev_at_epoch": 4988,
        "meta_bstar": 0,
        "meta_mean_motion_dot": -2.21e-06,
        "meta_mean_motion_ddot": 0,
        "tle_line1": "1 27380U 02007A   25345.09274446 -.00000221  00000+0  00000+0 0  9998",
        "tle_line2": "2 27380   6.4510  71.4509 0001533 222.2761 148.2084  1.00272878 49889"
      },
      "geometry": {
        "type": "Point",
        "coordinates": [
          -147.61569311973636,
          4.064943358463059
        ]
      }
    },
    {
      "type": "Feature",
      "properties": {
        "norad_id": 27426,
        "name": "DIRECTV 5 (TEMPO 1)",
        "group": "intelsat",
        "lat": 3.6526367915762,
        "lon": 133.49749976069745,
        "alt_km": 35796.66696737201,
        "timestamp": "2025-12-11T10:53:15.552955+00:00",
        "meta_object_name": "DIRECTV 5 (TEMPO 1)",
        "meta_object_id": "2002-023A",
        "meta_epoch": "2025-12-11T05:08:38.770368",
        "meta_mean_motion": 1.0027173,
        "meta_eccentricity": 0.0003525,
        "meta_inclination": 4.3986,
        "meta_ra_of_asc_node": 77.6693,
        "meta_arg_of_pericenter": 193.7723,
        "meta_mean_anomaly": 135.7724,
        "meta_ephemeris_type": 0,
        "meta_classification_type": "U",
        "meta_norad_cat_id": 27426,
        "meta_element_set_no": 999,
        "meta_rev_at_epoch": 8623,
        "meta_bstar": 0,
        "meta_mean_motion_dot": -5.1e-07,
        "meta_mean_motion_ddot": 0,
        "tle_line1": "1 27426U 02023A   25345.21433762 -.00000051  00000+0  00000+0 0  9990",
        "tle_line2": "2 27426   4.3986  77.6693 0003525 193.7723 135.7724  1.00271730 86237"
      },
      "geometry": {
        "type": "Point",
        "coordinates": [
          133.49749976069745,
          3.6526367915762
        ]
      }
    },
    {
      "type": "Feature",
      "properties": {
        "norad_id": 27438,
        "name": "INTELSAT 905 (IS-905)",
        "group": "intelsat",
        "lat": 3.5653069059824287,
        "lon": 106.35453711451564,
        "alt_km": 35796.43905948668,
        "timestamp": "2025-12-11T10:53:15.552968+00:00",
        "meta_object_name": "INTELSAT 905 (IS-905)",
        "meta_object_id": "2002-027A",
        "meta_epoch": "2025-12-10T10:38:24.492192",
        "meta_mean_motion": 1.00272307,
        "meta_eccentricity": 0.00027995,
        "meta_inclination": 6.2803,
        "meta_ra_of_asc_node": 72.0822,
        "meta_arg_of_pericenter": 193.4676,
        "meta_mean_anomaly": 196.2661,
        "meta_ephemeris_type": 0,
        "meta_classification_type": "U",
        "meta_norad_cat_id": 27438,
        "meta_element_set_no": 999,
        "meta_rev_at_epoch": 4947,
        "meta_bstar": 0,
        "meta_mean_motion_dot": 9.7e-07,
        "meta_mean_motion_ddot": 0,
        "tle_line1": "1 27438U 02027A   25344.44333903  .00000097  00000+0  00000+0 0  9996",
        "tle_line2": "2 27438   6.2803  72.0822 0002799 193.4676 196.2661  1.00272307 49476"
      },
      "geometry": {
        "type": "Point",
        "coordinates": [
          106.35453711451564,
          3.5653069059824287
        ]
      }
    },
    {
      "type": "Feature",
      "properties": {
        "norad_id": 27445,
        "name": "GALAXY 3C (G-3C)",
        "group": "intelsat",
        "lat": 3.0361116979973217,
        "lon": 148.82875650717386,
        "alt_km": 35781.44558226207,
        "timestamp": "2025-12-11T10:53:15.552981+00:00",
        "meta_object_name": "GALAXY 3C (G-3C)",
        "meta_object_id": "2002-030A",
        "meta_epoch": "2025-12-11T05:00:38.584224",
        "meta_mean_motion": 1.0027162,
        "meta_eccentricity": 0.0001123,
        "meta_inclination": 3.2606,
        "meta_ra_of_asc_node": 80.5234,
        "meta_arg_of_pericenter": 92.5456,
        "meta_mean_anomaly": 247.402,
        "meta_ephemeris_type": 0,
        "meta_classification_type": "U",
        "meta_norad_cat_id": 27445,
        "meta_element_set_no": 999,
        "meta_rev_at_epoch": 4460,
        "meta_bstar": 0,
        "meta_mean_motion_dot": -1.47e-06,
        "meta_mean_motion_ddot": 0,
        "tle_line1": "1 27445U 02030A   25345.20877991 -.00000147  00000+0  00000+0 0  9990",
        "tle_line2": "2 27445   3.2606  80.5234 0001123  92.5456 247.4020  1.00271620 44603"
      },
      "geometry": {
        "type": "Point",
        "coordinates": [
          148.82875650717386,
          3.0361116979973217
        ]
      }
    },
    {
      "type": "Feature",
      "properties": {
        "norad_id": 27513,
        "name": "INTELSAT 906 (IS-906)",
        "group": "intelsat",
        "lat": -4.244365537126476,
        "lon": -52.20974662259402,
        "alt_km": 35767.27894035486,
        "timestamp": "2025-12-11T10:53:15.552994+00:00",
        "meta_object_name": "INTELSAT 906 (IS-906)",
        "meta_object_id": "2002-041A",
        "meta_epoch": "2025-12-10T20:41:42.470304",
        "meta_mean_motion": 1.00271229,
        "meta_eccentricity": 0.0006143,
        "meta_inclination": 5.324,
        "meta_ra_of_asc_node": 75.2537,
        "meta_arg_of_pericenter": 191.2256,
        "meta_mean_anomaly": 187.9112,
        "meta_ephemeris_type": 0,
        "meta_classification_type": "U",
        "meta_norad_cat_id": 27513,
        "meta_element_set_no": 999,
        "meta_rev_at_epoch": 8514,
        "meta_bstar": 0,
        "meta_mean_motion_dot": 1.7e-07,
        "meta_mean_motion_ddot": 0,
        "tle_line1": "1 27513U 02041A   25344.86229711  .00000017  00000+0  00000+0 0  9995",
        "tle_line2": "2 27513   5.3240  75.2537 0006143 191.2256 187.9112  1.00271229 85144"
      },
      "geometry": {
        "type": "Point",
        "coordinates": [
          -52.20974662259402,
          -4.244365537126476
        ]
      }
    }
  ]
}